#dP2024  9 17  0  0  0.00000000      96 __u+U IGS20 EXT  IAC
## 2332 172800.00000000   900.00000000 60570 0.0000000000000
+   53   G02G03G04G05G06G07G08G09G10G11G12G13G14G15G16G17G18
+        G19G20G21G22G23G24G25G26G27G28G29G30G31G32R01R02R03
+        R04R05R07R08R09R11R12R14R15R16R17R18R19R20R21R22R24
+        R25R26  0  0  0  0  0  0  0  0  0  0  0  0  0  0  0
+          0  0  0  0  0  0  0  0  0  0  0  0  0  0  0  0  0
++         6  7  7  8 10  7  7  6  7 11  7  7  7  7  6  7  8
++         7  7  6  7  6  8  8  8  7  9  6  7  8  8  7  8  7
++         9  7  8  8  7  9  7  9  7  7  7  9 10  9  8  9  8
++         7  8  0  0  0  0  0  0  0  0  0  0  0  0  0  0  0
++         0  0  0  0  0  0  0  0  0  0  0  0  0  0  0  0  0
%c M  cc GPS ccc cccc cccc cccc cccc ccccc ccccc ccccc ccccc
%c cc cc ccc ccc cccc cccc cccc cccc ccccc ccccc ccccc ccccc
%f  0.0000000  0.000000000  0.00000000000  0.000000000000000
%f  0.0000000  0.000000000  0.00000000000  0.000000000000000
%i    0    0    0    0      0      0      0      0         0
%i    0    0    0    0      0      0      0      0         0
/* IAC                                ULTRA-RAPID PREDICTION
/* S/V CLOCKS ARE ALIGNED TO GNSS TIME                      
/* G:C1WC2W R:C1PC2P E:C1XC5X C:C2IC6I J:C1CC2S             
/* PCV:IGS20_2317 OL/AL:FES2004  NONE     YN ORB:CoN CLK:CoN
*  2024 09 17 18  0  0.00000000
PG02 -14218.675837   7160.747130  21683.885485   -356.046244
PG03 -23104.405972  12848.003324   1666.656452    541.012213
PG04 -18852.162922   3715.388760 -18386.108944    445.461501
PG05  21188.791928  -1171.235586 -16198.404672   -186.907708
PG06   5302.032531  24829.198844  -7546.360406     24.241948
PG07  -6787.109077  22954.158409 -10471.761156    -36.758628
PG08 -24637.195279  -4808.633135   9206.686499    355.718471
PG09  -9085.860821  12467.946474 -21715.579817    360.596553
PG10   -154.777216 -16320.375062  21089.681507   -128.418033
PG11  12619.912805  14129.335235 -18613.709004   -735.610132
PG12  24396.468938  -9214.987896   4620.774996   -538.753413
PG13  22571.071119  13769.896734   3415.492933    676.990293
PG14  -3996.645467  18193.259649  18894.400677    497.736507
PG15  24850.365968   1761.653685   8921.129931    205.394820
PG16 -19159.219369  -4679.810338 -18332.037291   -178.458747
PG17   6921.608519  18745.487383  17833.777988    623.936693
PG18   6779.403109 -23352.163260 -10392.005046   -653.868931
PG19  14949.672252  19271.722259  10863.234742    539.300883
PG20  14099.022647   7438.246109 -21153.264805    370.544500
PG21 -15502.663951   -206.868558  22015.005202    101.566234
PG22   3772.449977  15226.099044  21870.113865    -62.783784
PG23  12784.368503 -19023.305650  13253.025417    322.281261
PG24  14935.549685  -4965.872590  20918.120315   -486.600471
PG25  18926.867028 -17484.468219  -6189.480906    499.626119
PG26  -9387.952995 -12889.227231 -21398.368698     76.735749
PG27 -23365.119173 -13095.944271   -992.384318    -33.870228
PG28  -5204.621758 -25524.957259  -5188.453841   -414.633307
PG29  12480.351864  -9515.584727 -21488.112344   -577.237015
PG30    170.259077  26392.166547   -885.523608   -319.494488
PG31 -11404.735685 -17943.897048 -15907.078241   -224.578417
PG32  -9463.309886 -18357.827372  17028.615582   -596.226498
PR01  10910.106718  -9021.763632  21214.385311     98.114717
PR02  -7512.992200 -11234.838934  21687.024775    -24.706903
PR03 -22352.637801  -7531.956328   9833.333132    107.757971
PR04 -24526.837639   -160.114928  -7020.750494    255.147277
PR05 -13762.008441   7431.640899 -20155.288681    137.791782
PR07  22589.504507   7302.290725  -9221.238497     91.094694
PR08  24414.792755   -283.898026   7365.563483     -6.392620
PR09  -3046.309687  18802.758998  16942.116315    209.678866
PR11  16712.400165  -8791.722217  17171.494754     11.592340
PR12  15054.798187 -20569.870838   -753.281073     44.961731
PR14  -9373.838374  -6053.064572 -22921.849177     26.929586
PR15 -17196.770254  10101.854044 -15874.644840     75.786555
PR16 -15026.248689  20579.234263    628.807427     29.208776
PR17 -13533.909597 -17130.055307  13160.749415    122.857339
PR18 -11768.744924  -1992.274938  22566.804414    162.515554
PR19  -5569.085618  12759.893194  21380.323023   -291.716562
PR20   6224.192250  24193.285082   5097.237039   -119.218048
PR21  13251.100932  17858.708856 -12527.049573   -135.270230
PR22  11722.028990    830.377445 -22611.128586     44.564639
PR24  -7546.388788 -23932.116975  -4480.502725    -72.405839
PR25  13096.170596  17367.353734 -13340.770510    -99.507391
PR26  24856.565993    370.460726   5771.618859     30.761319
*  2024 09 17 18 15  0.00000000
PG02 -14615.792645   4786.635191  22108.006042   -356.039071
PG03 -22896.805845  12482.169067   4549.092904    541.024073
PG04 -20548.967346   2642.141317 -16688.711808    445.467890
PG05  19720.351616     72.974284 -18008.026703   -186.908909
PG06   5161.888862  25547.480298  -4742.067225     24.218424
PG07  -7157.268090  21548.223522 -12866.851468    -36.754673
PG08 -25368.349953  -5396.053168   6589.679622    355.730013
PG09 -11281.955983  11404.426093 -21269.099168    360.611011
PG10   1815.455992 -17527.375508  19974.550912   -128.429180
PG11  12517.553048  16168.364504 -16958.232082   -735.613818
PG12  23895.795563  -8640.338541   7369.096091   -538.755964
PG13  22661.035014  14081.214294    563.131940    676.992119
PG14  -5845.154486  19160.043052  17373.208540    497.744185
PG15  25650.186758   2328.867292   6310.307248    205.398719
PG16 -17362.404651  -5773.591567 -19741.605088   -178.449556
PG17   5076.412079  17831.199218  19377.516505    623.926445
PG18   7036.443780 -22024.450172 -12846.863000   -653.870856
PG19  13685.496518  18678.304939  13232.374902    539.305290
PG20  12355.520442   9177.800140 -21568.309093    370.544153
PG21 -15886.602941  -2580.466694  21673.965085    101.565562
PG22   1662.925333  16333.436932  21342.686469    -62.787154
PG23  14014.276041 -19670.212775  10819.208673    322.288811
PG24  15373.602921  -2496.459929  21074.854128   -486.600122
PG25  19520.080511 -17534.680595  -3412.401825    499.626146
PG26  -7470.362851 -14359.291386 -21181.293678     76.728022
PG27 -23053.006106 -13190.657537  -3805.033388    -33.870316
PG28  -4997.991675 -25977.796983  -2373.649301   -414.645710
PG29  14516.573016  -8240.500005 -20731.882160   -577.234825
PG30   -192.732414  26133.769469  -3690.330423   -319.488018
PG31 -11258.490472 -19631.168068 -13819.903497   -224.577981
PG32  -7609.467746 -17604.152085  18676.284212   -596.223142
PR01  13438.325661  -8920.640484  19757.355051     98.115903
PR02  -4810.291575 -10894.132231  22604.826071    -24.707055
PR03 -20994.009297  -7253.819960  12641.183897    107.758735
PR04 -25217.832492    -57.050028  -3886.005535    255.148948
PR05 -16137.947820   7272.641124 -18375.094401    137.792299
PR07  21287.534790   7034.441330 -12078.807086     91.095365
PR08  25137.016871   -370.714003   4247.052617     -6.392558
PR09  -4068.201305  20460.523190  14640.936802    209.680838
PR11  15360.717889  -7006.527972  19141.755806     11.591445
PR12  14888.097812 -20563.403251   2450.667462     44.962167
PR14  -7774.093673  -8379.087162 -22789.490944     26.929657
PR15 -15919.075802   8437.810873 -18030.272251     75.786246
PR16 -14831.868703  20565.486542  -2586.042409     29.209085
PR17 -14275.247177 -18390.573317  10375.683795    122.860420
PR18 -12910.795613  -4463.268292  21569.079939    162.517237
PR19  -6499.944847  10215.719741  22456.353708   -291.717799
PR20   6117.869965  23352.119645   8208.949283   -119.218600
PR21  13964.988140  19043.615285  -9688.214803   -135.273074
PR22  12790.206384   3360.726151 -21783.255600     44.556373
PR24  -7371.971017 -23190.624079  -7584.208813    -72.407175
PR25  13767.100919  18689.945422 -10600.197255    -99.505003
PR26  25384.239977    254.739589   2606.176807     30.775126
EOF
